[{"OBJECT_NAME":"ONEWEB-0193","OBJECT_ID":"2021-031AE","EPOCH":"2026-03-09T17:39:38.141568","MEAN_MOTION":13.14503398,"ECCENTRICITY":0.0001396,"INCLINATION":87.8988,"RA_OF_ASC_NODE":309.544,"ARG_OF_PERICENTER":94.9211,"MEAN_ANOMALY":265.2078,"EPHEMERIS_TYPE":0,"CLASSIFICATION_TYPE":"U","NORAD_CAT_ID":48238,"ELEMENT_SET_NO":999,"REV_AT_EPOCH":23524,"BSTAR":0.00078416939,"MEAN_MOTION_DOT":3.04e-6,"MEAN_MOTION_DDOT":0},{"OBJECT_NAME":"DELTA 1 DEB","OBJECT_ID":"1976-077AZ","EPOCH":"2026-03-09T03:39:54.403200","MEAN_MOTION":12.83401846,"ECCENTRICITY":0.03142117,"INCLINATION":101.7378,"RA_OF_ASC_NODE":326.09,"ARG_OF_PERICENTER":195.0445,"MEAN_ANOMALY":330.4386,"EPHEMERIS_TYPE":0,"CLASSIFICATION_TYPE":"U","NORAD_CAT_ID":10752,"ELEMENT_SET_NO":999,"REV_AT_EPOCH":29050,"BSTAR":0.020802499,"MEAN_MOTION_DOT":6.084e-5,"MEAN_MOTION_DDOT":0}]
